KUIPER-00074            
1 64821U 25151F   26019.74420743  .00003909  00000+0  54082-3 0  9996
2 64821  51.9002 147.0288 0013192 109.6046 250.6341 14.79961332 28198
KUIPER-00075            
1 64822U 25151G   26019.61299149  .00031612  00000+0  79338-3 0  9990
2 64822  51.8734 100.3404 0003427 103.9236 256.2134 15.39726805 28834
KUIPER-00076            
1 64823U 25151H   26019.74156701  .00004653  00000+0  63823-3 0  9998
2 64823  51.8997 149.5344 0002280 138.2725 221.8411 14.79985650 28164
KUIPER-00077            
1 64824U 25151J   26019.73601673  .00004248  00000+0  58541-3 0  9992
2 64824  51.9003 154.5652 0006475  80.0968 280.0725 14.79973442 28098
KUIPER-00078            
1 64825U 25151K   26019.63751604  .00008038  00000+0  10811-2 0  9990
2 64825  51.8992 152.4943 0002910 145.8629 214.2521 14.79975646 28113
KUIPER-00079            
1 64826U 25151L   26019.66555914  .00003463  00000+0  48230-3 0  9994
2 64826  51.8993 157.3485 0002314 112.2012 247.9196 14.80000969 29247
KUIPER-00080            
1 64827U 25151M   26019.63205773  .00006977  00000+0  94528-3 0  9991
2 64827  51.9002 157.5035 0002690 128.8359 231.2844 14.79845535 28044
KUIPER-00082            
1 64828U 25151N   26019.74681736  .00004892  00000+0  66958-3 0  9991
2 64828  51.9013 144.5194 0000921 153.4743 206.6266 14.79976922 28235
KUIPER-00083            
1 64829U 25151P   26019.80627267  .00004555  00000+0  62565-3 0  9994
2 64829  51.9000 151.7484 0003303 123.2246 236.9034 14.79970093 29327
KUIPER-00084            
1 64830U 25151Q   26019.66014229  .00000422  00000+0  84582-4 0  9991
2 64830  51.9013 162.3762 0009068  60.1975 299.9888 14.79959813 27974
KUIPER-00085            
1 64831U 25151R   26020.25002315  .00040244  00000+0  52770-2 0  9990
2 64831  51.9022 142.3137 0001546 154.8324 187.7126 14.79927863  5617
KUIPER-00086            
1 64832U 25151S   26020.25002315  .00030556  00000+0  40099-2 0  9997
2 64832  51.9001 152.2921 0003881 106.3874 294.2966 14.80025521  5362
KUIPER-00087            
1 64833U 25151T   26019.72116517  .00003324  00000+0  46479-3 0  9990
2 64833  51.8992 137.1202 0000521  71.1182 288.9837 14.79936018 28322
KUIPER-00089            
1 64834U 25151U   26020.32350022  .00008609  00000+0  11559-2 0  9991
2 64834  51.9001 139.4633 0001374 169.3950 190.7042 14.79967281 28355
KUIPER-00090            
1 64835U 25151V   26020.25002315  .00054825  00000+0  72265-2 0  9995
2 64835  51.8990 132.3263 0001388  91.4803 194.6898 14.79555440  5672
KUIPER-00091            
1 64836U 25151W   26020.32619807  .00008575  00000+0  11517-2 0  9998
2 64836  51.9006 136.9572 0007268 136.3124 223.8415 14.79948971 28381
KUIPER-00092            
1 64837U 25151X   26020.31819672  .00005736  00000+0  78063-3 0  9996
2 64837  51.9004 144.4912 0002734 124.5538 235.5683 14.79942678 29491
KUIPER-00093            
1 64838U 25151Y   26019.64010805  .00004373  00000+0  60203-3 0  9995
2 64838  51.8990 149.9731 0002826 131.5781 228.5424 14.79949572 28140
KUIPER-00094            
1 64839U 25151Z   26020.30298508  .00017760  00000+0  12427-2 0  9997
2 64839  51.8897 124.9269 0004541 108.2646 251.8822 15.05320611 28556
KUIPER-00081            
1 65132U 25171A   26020.23559266  .00008977  00000+0  12048-2 0  9998
2 65132  51.9022   2.3366 0001766  57.0702 303.0430 14.79939619 25861
KUIPER-00088            
1 65133U 25171B   26020.26744770  .00009919  00000+0  12783-2 0  9991
2 65133  51.9018  20.2263 0000676 140.7489 219.3523 14.81549330 25618
KUIPER-00095            
1 65134U 25171C   26020.25086603  .00013054  00000+0  11642-2 0  9993
2 65134  51.8939   0.7522 0004371 335.5107  24.5654 14.96256224 25881
KUIPER-00096            
1 65135U 25171D   26020.25842886  .00001232  00000+0  19060-3 0  9995
2 65135  51.9003  12.2462 0002534  54.6699 305.4500 14.79931839 25727
KUIPER-00097            
1 65136U 25171E   26020.25579694  .00009243  00000+0  12390-2 0  9998
2 65136  51.9033  14.8791 0002673  31.4660 328.6462 14.79958852 25671
KUIPER-00098            
1 65137U 25171F   26020.25287613  .00006189  00000+0  83881-3 0  9996
2 65137  51.9012  17.2725 0006907 345.7639  14.3128 14.79989793 24994
KUIPER-00099            
1 65138U 25171G   26020.23004986  .00002248  00000+0  32380-3 0  9995
2 65138  51.9053   7.3467 0000786  73.0020 287.1029 14.79935019 25787
KUIPER-00100            
1 65139U 25171H   26019.65876425 -.00002456  00000+0 -29326-3 0  9994
2 65139  51.9026   7.3613 0001134  86.3345 273.7747 14.79926800 25737
KUIPER-00102            
1 65140U 25171J   26020.26418474  .00005376  00000+0  73396-3 0  9999
2 65140  51.8995   7.2257 0000755  77.9850 282.1197 14.79915588 25780
KUIPER-00103            
1 65141U 25171K   26020.27861359 -.00008847  00000+0 -11340-2 0  9993
2 65141  51.8995  24.6471 0002813 345.5805  14.5076 14.79887377 25544
KUIPER-00104            
1 65142U 25171L   26020.27421467  .00005422  00000+0  79753-3 0  9993
2 65142  51.9035  11.9303 0005159  23.5135 336.6061 14.76703886 25720
KUIPER-00105            
1 65143U 25171M   26020.25002315 -.00024552  00000+0 -31982-2 0  9997
2 65143  51.9004  19.8520 0002064  11.1729 347.1004 14.79998867  5314
KUIPER-00106            
1 65144U 25171N   26020.24667782  .00011953  00000+0  10478-2 0  9998
2 65144  51.8947  15.0638 0008145 302.4628  57.5553 14.96990536 25685
KUIPER-00107            
1 65145U 25171P   26020.20174212 -.00000950  00000+0 -95675-4 0  9997
2 65145  51.9033   2.5035 0001055  72.1754 287.9324 14.79921621 25853
KUIPER-00108            
1 65146U 25171Q   26020.28980445  .00009401  00000+0  12590-2 0  9990
2 65146  51.9046  14.6248 0002451   0.8222 359.2744 14.79982178 25692
KUIPER-00109            
1 65147U 25171R   26020.26062429  .00008399  00000+0  11236-2 0  9993
2 65147  51.9052   9.6888 0011134 333.8207  26.2191 14.80120912 25750
KUIPER-00110            
1 65148U 25171S   26020.28137159  .00008807  00000+0  11822-2 0  9994
2 65148  51.9001  22.1982 0002743  25.9698 334.1401 14.79954972 25573
KUIPER-00111            
1 65149U 25171T   26020.30979172  .00008149  00000+0  10959-2 0  9996
2 65149  51.8983  26.9957 0003286 355.7685   4.3249 14.79959096 25511
KUIPER-00112            
1 65150U 25171U   26018.26930005  .00001882  00000+0  27709-3 0  9991
2 65150  51.9021  18.5568 0005861   4.3760 355.7252 14.79740837 25455
KUIPER-00114            
1 65151U 25171V   26020.30693886 -.00003031  00000+0 -36888-3 0  9991
2 65151  51.9001  29.5510 0002807 352.6126   7.4794 14.79903331 25479
KUIPER-00115            
1 65152U 25171W   26020.25002315 -.00021907  00000+0 -28711-2 0  9994
2 65152  51.9004  22.2898 0002445   8.8632   3.4793 14.79679140  5305
KUIPER-00116            
1 65153U 25171X   26020.20831578  .00005548  00000+0  75456-3 0  9991
2 65153  51.9011  27.5111 0008746 296.5580  63.4485 14.80013231 25499
KUIPER-00118            
1 65154U 25171Y   26020.27343783  .00008591  00000+0  11536-2 0  9994
2 65154  51.9010  29.6828 0001262  10.9592 349.1398 14.79965697 25479
KUIPER-00119            
1 65155U 25171Z   26020.28645738  .00005780  00000+0  78516-3 0  9990
2 65155  51.9013  17.2038 0007642 330.2720  29.7807 14.79998584 25644
KUIPER-00120            
1 65762U 25217A   26020.05409682  .00005195  00000+0  77078-3 0  9998
2 65762  51.8989 267.4814 0003683 121.5778 238.5543 14.76397545 17549
KUIPER-00132            
1 65763U 25217B   26020.30508941  .00054494  00000+0  14255-2 0  9998
2 65763  51.8586 238.1010 0008442 148.1560 211.9939 15.38176041 17974
KUIPER-00133            
1 65764U 25217C   26020.25002315 -.00005351  00000+0 -67317-3 0  9995
2 65764  51.9023 267.3069 0002526 175.5759 346.2505 14.79943732  5488
KUIPER-00139            
1 65765U 25217D   26019.87200271  .00008945  00000+0  68924-3 0  9998
2 65765  51.8844 257.3401 0008332 149.9092 210.2360 15.02275501 17676
KUIPER-00142            
1 65766U 25217E   26020.25002315 -.00036051  00000+0 -47102-2 0  9997
2 65766  51.8974 249.7984 0000713 221.9426  18.3040 14.80066334  5473
KUIPER-00145            
1 65767U 25217F   26020.06721763  .00006438  00000+0  87238-3 0  9991
2 65767  51.8977 253.1185 0001651  58.9555 301.1569 14.79948676 17740
KUIPER-00147            
1 65768U 25217G   26020.03068923  .00005551  00000+0  75584-3 0  9997
2 65768  51.8982 255.7795 0000988 117.2073 242.8991 14.79974578 17704
KUIPER-00148            
1 65769U 25217H   26020.14987578  .00016228  00000+0  10200-2 0  9992
2 65769  51.8759 249.6145 0010012 178.0086 182.0930 15.09330701 17803
KUIPER-00150            
1 65770U 25217J   26020.08746141  .00004929  00000+0  67461-3 0  9993
2 65770  51.9009 265.5219 0000794 102.2203 257.8848 14.79959911 17578
KUIPER-00151            
1 65771U 25217K   26020.02799562  .00005459  00000+0  74370-3 0  9999
2 65771  51.9006 258.2821 0001166  99.4396 260.6698 14.79982671 17673
KUIPER-00152            
1 65772U 25217L   26020.25002315 -.00028359  00000+0 -33716-2 0  9992
2 65772  51.8988 244.9477 0003277 213.4189 280.9651 14.83860936  5859
KUIPER-00153            
1 65773U 25217M   26019.84389369  .00010399  00000+0  61069-3 0  9999
2 65773  51.8758 254.9765 0013114 154.4604 205.7023 15.12173946 17709
KUIPER-00155            
1 65774U 25217N   26019.96214481  .00017966  00000+0  79369-3 0  9994
2 65774  51.8790 241.8451 0006344 160.2266 199.8961 15.21769616 17898
KUIPER-00156            
1 65775U 25217P   26020.25002315 -.01528357  00000+0 -13259+0 0  9996
2 65775  51.8888 240.9156 0005713 273.1369 283.6707 14.99754159  5837
KUIPER-00158            
1 65776U 25217Q   26019.85638434  .00002716  00000+0  38498-3 0  9997
2 65776  51.8968 261.5298 0001146 114.9813 245.1268 14.79950466 17616
KUIPER-00163            
1 65777U 25217R   26019.85374676  .00003658  00000+0  50885-3 0  9993
2 65777  51.8968 264.0462 0001279  95.9385 264.1723 14.79913595 17571
